start=new Date('2023-05-30T00:00:00.000Z').valueOf();
sats=[{"OBJECT_ID":"2023-065X","DECAY_DATE":null,"RA_OF_ASC_NODE":"349.5721","CLASSIFICATION_TYPE":"U","CENTER_NAME":"EARTH","REF_FRAME":"TEME","PERIOD":"91.641","SITE":"AFETR","TIME_SYSTEM":"UTC","MEAN_ELEMENT_THEORY":"SGP4","RCS_SIZE":"LARGE","TLE_LINE1":"1 56524U 23065X   23149.90893292  .00004056  00000-0  34368-4 0  9992","COUNTRY_CODE":"US","NORAD_CAT_ID":"56524","ELEMENT_SET_NO":"999","PERIAPSIS":"353.867","MEAN_ANOMALY":"91.8161","BSTAR":"0.00003436800000","ECCENTRICITY":"0.00017360","GP_ID":"232783976","MEAN_MOTION":"15.71351348","EPOCH":"2023-05-29T21:48:51.804288","ARG_OF_PERICENTER":"268.2508","SEMIMAJOR_AXIS":"6733.171","MEAN_MOTION_DDOT":"0.0000000000000","APOAPSIS":"356.205","REV_AT_EPOCH":"368","MEAN_MOTION_DOT":"0.00004056","TLE_LINE2":"2 56524  43.0007 349.5721 0001736 268.2508  91.8161 15.71351348  3688","OBJECT_NAME":"STARLINK-6323","OBJECT_TYPE":"PAYLOAD","INCLINATION":"43.0007","FILE":"3920354","LAUNCH_DATE":"2023-05-14","EPHEMERIS_TYPE":"0"},{"COUNTRY_CODE":"US","TLE_LINE1":"1 56525U 23065Y   23149.90840699  .00023221  00000-0  17995-3 0  9997","NORAD_CAT_ID":"56525","ELEMENT_SET_NO":"999","PERIAPSIS":"353.581","MEAN_ANOMALY":"90.3075","OBJECT_ID":"2023-065Y","DECAY_DATE":null,"RA_OF_ASC_NODE":"349.5703","CLASSIFICATION_TYPE":"U","CENTER_NAME":"EARTH","REF_FRAME":"TEME","PERIOD":"91.640","SITE":"AFETR","TIME_SYSTEM":"UTC","MEAN_ELEMENT_THEORY":"SGP4","RCS_SIZE":"LARGE","MEAN_MOTION_DDOT":"0.0000000000000","APOAPSIS":"356.410","REV_AT_EPOCH":"368","MEAN_MOTION_DOT":"0.00023221","TLE_LINE2":"2 56525  43.0005 349.5703 0002101 269.7552  90.3075 15.71365478  3686","OBJECT_NAME":"STARLINK-6329","OBJECT_TYPE":"PAYLOAD","INCLINATION":"43.0005","FILE":"3920354","LAUNCH_DATE":"2023-05-14","EPHEMERIS_TYPE":"0","BSTAR":"0.00017995000000","ECCENTRICITY":"0.00021010","GP_ID":"232784090","MEAN_MOTION":"15.71365478","EPOCH":"2023-05-29T21:48:06.363936","ARG_OF_PERICENTER":"269.7552","SEMIMAJOR_AXIS":"6733.131"},{"COUNTRY_CODE":"US","TLE_LINE1":"1 56526U 23065Z   23149.90872268  .00001196  00000-0  12569-4 0  9995","ELEMENT_SET_NO":"999","NORAD_CAT_ID":"56526","MEAN_ANOMALY":"85.9847","PERIAPSIS":"353.824","DECAY_DATE":null,"OBJECT_ID":"2023-065Z","CENTER_NAME":"EARTH","CLASSIFICATION_TYPE":"U","RA_OF_ASC_NODE":"349.5703","MEAN_ELEMENT_THEORY":"SGP4","TIME_SYSTEM":"UTC","SITE":"AFETR","PERIOD":"91.641","REF_FRAME":"TEME","RCS_SIZE":"LARGE","TLE_LINE2":"2 56526  43.0008 349.5703 0001788 274.0816  85.9847 15.71354028  3688","MEAN_MOTION_DOT":"0.00001196","REV_AT_EPOCH":"368","APOAPSIS":"356.232","MEAN_MOTION_DDOT":"0.0000000000000","OBJECT_NAME":"STARLINK-6317","INCLINATION":"43.0008","OBJECT_TYPE":"PAYLOAD","EPHEMERIS_TYPE":"0","LAUNCH_DATE":"2023-05-14","FILE":"3920354","BSTAR":"0.00001256900000","ECCENTRICITY":"0.00017880","MEAN_MOTION":"15.71354028","GP_ID":"232784276","ARG_OF_PERICENTER":"274.0816","SEMIMAJOR_AXIS":"6733.163","EPOCH":"2023-05-29T21:48:33.639552"},{"OBJECT_NAME":"STARLINK-6335","TLE_LINE2":"2 56527  43.0004 349.5682 0001811 272.3135  87.7526 15.71361609  3680","MEAN_MOTION_DOT":"0.00012403","APOAPSIS":"356.226","REV_AT_EPOCH":"368","MEAN_MOTION_DDOT":"0.0000000000000","EPHEMERIS_TYPE":"0","LAUNCH_DATE":"2023-05-14","FILE":"3920354","INCLINATION":"43.0004","OBJECT_TYPE":"PAYLOAD","ECCENTRICITY":"0.00018110","BSTAR":"0.00009786200000","ARG_OF_PERICENTER":"272.3135","SEMIMAJOR_AXIS":"6733.142","EPOCH":"2023-05-29T21:47:57.256512","MEAN_MOTION":"15.71361609","GP_ID":"232784164","TLE_LINE1":"1 56527U 23065AA  23149.90830158  .00012403  00000-0  97862-4 0  9990","COUNTRY_CODE":"US","MEAN_ANOMALY":"87.7526","PERIAPSIS":"353.787","ELEMENT_SET_NO":"999","NORAD_CAT_ID":"56527","CENTER_NAME":"EARTH","CLASSIFICATION_TYPE":"U","RA_OF_ASC_NODE":"349.5682","DECAY_DATE":null,"OBJECT_ID":"2023-065AA","RCS_SIZE":"LARGE","TIME_SYSTEM":"UTC","MEAN_ELEMENT_THEORY":"SGP4","SITE":"AFETR","PERIOD":"91.640","REF_FRAME":"TEME"},{"BSTAR":"0.00001667000000","ECCENTRICITY":"0.00017570","ARG_OF_PERICENTER":"274.1540","SEMIMAJOR_AXIS":"6733.064","EPOCH":"2023-05-29T21:48:12.176928","GP_ID":"232784226","MEAN_MOTION":"15.71388664","OBJECT_NAME":"STARLINK-6337","MEAN_MOTION_DOT":"0.00001737","TLE_LINE2":"2 56528  43.0007 349.5686 0001757 274.1540  85.9128 15.71388664  3685","MEAN_MOTION_DDOT":"0.0000000000000","APOAPSIS":"356.112","REV_AT_EPOCH":"368","LAUNCH_DATE":"2023-05-14","EPHEMERIS_TYPE":"0","FILE":"3920354","INCLINATION":"43.0007","OBJECT_TYPE":"PAYLOAD","CLASSIFICATION_TYPE":"U","CENTER_NAME":"EARTH","RA_OF_ASC_NODE":"349.5686","OBJECT_ID":"2023-065AB","DECAY_DATE":null,"RCS_SIZE":"LARGE","SITE":"AFETR","TIME_SYSTEM":"UTC","MEAN_ELEMENT_THEORY":"SGP4","REF_FRAME":"TEME","PERIOD":"91.639","TLE_LINE1":"1 56528U 23065AB  23149.90847427  .00001737  00000-0  16670-4 0  9994","COUNTRY_CODE":"US","MEAN_ANOMALY":"85.9128","PERIAPSIS":"353.746","ELEMENT_SET_NO":"999","NORAD_CAT_ID":"56528"},{"REF_FRAME":"TEME","PERIOD":"91.641","SITE":"AFETR","MEAN_ELEMENT_THEORY":"SGP4","TIME_SYSTEM":"UTC","RCS_SIZE":"LARGE","OBJECT_ID":"2023-065AC","DECAY_DATE":null,"RA_OF_ASC_NODE":"349.5653","CENTER_NAME":"EARTH","CLASSIFICATION_TYPE":"U","NORAD_CAT_ID":"56529","ELEMENT_SET_NO":"999","PERIAPSIS":"353.768","MEAN_ANOMALY":"82.5751","TLE_LINE1":"1 56529U 23065AC  23149.90788064  .00003465  00000-0  29855-4 0  9995","COUNTRY_CODE":"US","GP_ID":"232784339","MEAN_MOTION":"15.71356537","EPOCH":"2023-05-29T21:47:20.887296","SEMIMAJOR_AXIS":"6733.156","ARG_OF_PERICENTER":"277.4905","BSTAR":"0.00002985500000","ECCENTRICITY":"0.00018610","INCLINATION":"43.0002","OBJECT_TYPE":"PAYLOAD","FILE":"3920354","LAUNCH_DATE":"2023-05-14","EPHEMERIS_TYPE":"0","APOAPSIS":"356.274","MEAN_MOTION_DDOT":"0.0000000000000","REV_AT_EPOCH":"368","MEAN_MOTION_DOT":"0.00003465","TLE_LINE2":"2 56529  43.0002 349.5653 0001861 277.4905  82.5751 15.71356537  3681","OBJECT_NAME":"STARLINK-6307"},{"RCS_SIZE":"LARGE","TIME_SYSTEM":"UTC","MEAN_ELEMENT_THEORY":"SGP4","SITE":"AFETR","PERIOD":"91.640","REF_FRAME":"TEME","CLASSIFICATION_TYPE":"U","CENTER_NAME":"EARTH","RA_OF_ASC_NODE":"349.5664","DECAY_DATE":null,"OBJECT_ID":"2023-065AD","MEAN_ANOMALY":"93.9560","PERIAPSIS":"353.734","ELEMENT_SET_NO":"999","NORAD_CAT_ID":"56530","COUNTRY_CODE":"US","TLE_LINE1":"1 56530U 23065AD  23149.90819514  .00009380  00000-0  74876-4 0  9997","ARG_OF_PERICENTER":"266.1091","SEMIMAJOR_AXIS":"6733.145","EPOCH":"2023-05-29T21:47:48.060096","MEAN_MOTION":"15.71360297","GP_ID":"232784028","BSTAR":"0.00007487600000","ECCENTRICITY":"0.00018960","EPHEMERIS_TYPE":"0","LAUNCH_DATE":"2023-05-14","FILE":"3920354","INCLINATION":"43.0005","OBJECT_TYPE":"PAYLOAD","OBJECT_NAME":"STARLINK-6318","TLE_LINE2":"2 56530  43.0005 349.5664 0001896 266.1091  93.9560 15.71360297  3689","MEAN_MOTION_DOT":"0.00009380","APOAPSIS":"356.287","REV_AT_EPOCH":"368","MEAN_MOTION_DDOT":"0.0000000000000"},{"MEAN_MOTION":"15.71361017","GP_ID":"232783914","EPOCH":"2023-05-29T21:47:11.883552","ARG_OF_PERICENTER":"283.3825","SEMIMAJOR_AXIS":"6733.143","BSTAR":"0.00009558000000","ECCENTRICITY":"0.00020000","OBJECT_TYPE":"PAYLOAD","INCLINATION":"43.0004","FILE":"3920354","EPHEMERIS_TYPE":"0","LAUNCH_DATE":"2023-05-14","REV_AT_EPOCH":"368","APOAPSIS":"356.355","MEAN_MOTION_DDOT":"0.0000000000000","TLE_LINE2":"2 56531  43.0004 349.5641 0002000 283.3825  76.6820 15.71361017  3686","MEAN_MOTION_DOT":"0.00012103","OBJECT_NAME":"STARLINK-6280","PERIOD":"91.640","REF_FRAME":"TEME","MEAN_ELEMENT_THEORY":"SGP4","TIME_SYSTEM":"UTC","SITE":"AFETR","RCS_SIZE":"LARGE","DECAY_DATE":null,"OBJECT_ID":"2023-065AE","RA_OF_ASC_NODE":"349.5641","CLASSIFICATION_TYPE":"U","CENTER_NAME":"EARTH","NORAD_CAT_ID":"56531","ELEMENT_SET_NO":"999","PERIAPSIS":"353.662","MEAN_ANOMALY":"76.6820","COUNTRY_CODE":"US","TLE_LINE1":"1 56531U 23065AE  23149.90777643  .00012103  00000-0  95580-4 0  9996"},{"RCS_SIZE":"LARGE","REF_FRAME":"TEME","PERIOD":"91.641","SITE":"AFETR","MEAN_ELEMENT_THEORY":"SGP4","TIME_SYSTEM":"UTC","RA_OF_ASC_NODE":"349.5667","CLASSIFICATION_TYPE":"U","CENTER_NAME":"EARTH","OBJECT_ID":"2023-065AF","DECAY_DATE":null,"PERIAPSIS":"353.836","MEAN_ANOMALY":"88.5433","NORAD_CAT_ID":"56532","ELEMENT_SET_NO":"999","TLE_LINE1":"1 56532U 23065AF  23149.90809290  .00017713  00000-0  13823-3 0  9992","COUNTRY_CODE":"US","EPOCH":"2023-05-29T21:47:39.226560","ARG_OF_PERICENTER":"271.5233","SEMIMAJOR_AXIS":"6733.158","GP_ID":"232783977","MEAN_MOTION":"15.71355843","BSTAR":"0.00013823000000","ECCENTRICITY":"0.00017630","FILE":"3920354","LAUNCH_DATE":"2023-05-14","EPHEMERIS_TYPE":"0","INCLINATION":"43.0001","OBJECT_TYPE":"PAYLOAD","OBJECT_NAME":"STARLINK-6319","MEAN_MOTION_DDOT":"0.0000000000000","APOAPSIS":"356.210","REV_AT_EPOCH":"368","MEAN_MOTION_DOT":"0.00017713","TLE_LINE2":"2 56532  43.0001 349.5667 0001763 271.5233  88.5433 15.71355843  3681"},{"ARG_OF_PERICENTER":"275.1703","SEMIMAJOR_AXIS":"6733.169","EPOCH":"2023-05-29T21:47:02.809824","MEAN_MOTION":"15.71351980","GP_ID":"232784091","ECCENTRICITY":"0.00020010","BSTAR":"0.00001449900000","EPHEMERIS_TYPE":"0","LAUNCH_DATE":"2023-05-14","FILE":"3920354","OBJECT_TYPE":"PAYLOAD","INCLINATION":"43.0006","OBJECT_NAME":"STARLINK-6310","TLE_LINE2":"2 56533  43.0006 349.5633 0002001 275.1703  84.8936 15.71351980  3683","MEAN_MOTION_DOT":"0.00001449","APOAPSIS":"356.381","MEAN_MOTION_DDOT":"0.0000000000000","REV_AT_EPOCH":"368","RCS_SIZE":"LARGE","TIME_SYSTEM":"UTC","MEAN_ELEMENT_THEORY":"SGP4","SITE":"AFETR","PERIOD":"91.641","REF_FRAME":"TEME","CLASSIFICATION_TYPE":"U","CENTER_NAME":"EARTH","RA_OF_ASC_NODE":"349.5633","DECAY_DATE":null,"OBJECT_ID":"2023-065AG","MEAN_ANOMALY":"84.8936","PERIAPSIS":"353.687","ELEMENT_SET_NO":"999","NORAD_CAT_ID":"56533","TLE_LINE1":"1 56533U 23065AG  23149.90767141  .00001449  00000-0  14499-4 0  9991","COUNTRY_CODE":"US"}];
